start=new Date('2022-02-28T00:00:00.000Z').valueOf();
sats=[{"MEAN_ANOMALY":"288.1150","TLE_LINE1":"1 46056U 20055AF  22058.85943809 -.00000181  00000-0  67256-5 0  9998","CENTER_NAME":"EARTH","ECCENTRICITY":"0.00012490","PERIOD":"95.592","ELEMENT_SET_NO":"999","REV_AT_EPOCH":"8735","GP_ID":"197284301","SEMIMAJOR_AXIS":"6925.356","EPHEMERIS_TYPE":"0","MEAN_MOTION":"15.06397549","OBJECT_NAME":"STARLINK-1561","RCS_SIZE":"LARGE","SITE":"AFETR","COUNTRY_CODE":"US","CLASSIFICATION_TYPE":"U","TIME_SYSTEM":"UTC","TLE_LINE2":"2 46056  53.0542 239.4290 0001249  71.9975 288.1150 15.06397549 87352","REF_FRAME":"TEME","RA_OF_ASC_NODE":"239.4290","MEAN_ELEMENT_THEORY":"SGP4","NORAD_CAT_ID":"46056","OBJECT_TYPE":"PAYLOAD","PERIAPSIS":"546.356","INCLINATION":"53.0542","DECAY_DATE":null,"FILE":"3331200","MEAN_MOTION_DOT":"-0.00000181","ARG_OF_PERICENTER":"71.9975","LAUNCH_DATE":"2020-08-07","APOAPSIS":"548.086","MEAN_MOTION_DDOT":"0.0000000000000","BSTAR":"0.00000672560000","EPOCH":"2022-02-27T20:37:35.450976","OBJECT_ID":"2020-055AF"},{"RCS_SIZE":"LARGE","MEAN_MOTION":"15.06402249","OBJECT_NAME":"STARLINK-1564","SITE":"AFETR","EPHEMERIS_TYPE":"0","TIME_SYSTEM":"UTC","COUNTRY_CODE":"US","CLASSIFICATION_TYPE":"U","PERIOD":"95.592","MEAN_ANOMALY":"279.1147","CENTER_NAME":"EARTH","ECCENTRICITY":"0.00016380","TLE_LINE1":"1 46058U 20055AH  22058.87048802  .00001595  00000-0  12593-3 0  9992","GP_ID":"197283550","SEMIMAJOR_AXIS":"6925.342","REV_AT_EPOCH":"8734","ELEMENT_SET_NO":"999","ARG_OF_PERICENTER":"81.0028","LAUNCH_DATE":"2020-08-07","MEAN_MOTION_DOT":"0.00001595","DECAY_DATE":null,"INCLINATION":"53.0541","FILE":"3331200","BSTAR":"0.00012593000000","EPOCH":"2022-02-27T20:53:30.164928","OBJECT_ID":"2020-055AH","APOAPSIS":"548.341","MEAN_MOTION_DDOT":"0.0000000000000","MEAN_ELEMENT_THEORY":"SGP4","NORAD_CAT_ID":"46058","TLE_LINE2":"2 46058  53.0541 239.3707 0001638  81.0028 279.1147 15.06402249 87347","REF_FRAME":"TEME","RA_OF_ASC_NODE":"239.3707","OBJECT_TYPE":"PAYLOAD","PERIAPSIS":"546.072"},{"MEAN_MOTION_DOT":"-0.00000041","ARG_OF_PERICENTER":"90.4490","LAUNCH_DATE":"2020-08-07","INCLINATION":"53.0530","DECAY_DATE":null,"FILE":"3331200","BSTAR":"0.00001616300000","EPOCH":"2022-02-27T21:04:08.013792","OBJECT_ID":"2020-055AJ","APOAPSIS":"548.153","MEAN_MOTION_DDOT":"0.0000000000000","MEAN_ELEMENT_THEORY":"SGP4","NORAD_CAT_ID":"46059","TLE_LINE2":"2 46059  53.0530 239.3368 0001310  90.4490 269.6649 15.06389347 87303","RA_OF_ASC_NODE":"239.3368","REF_FRAME":"TEME","OBJECT_TYPE":"PAYLOAD","PERIAPSIS":"546.339","MEAN_MOTION":"15.06389347","OBJECT_NAME":"STARLINK-1570","RCS_SIZE":"LARGE","SITE":"AFETR","EPHEMERIS_TYPE":"0","TIME_SYSTEM":"UTC","COUNTRY_CODE":"US","CLASSIFICATION_TYPE":"U","PERIOD":"95.593","MEAN_ANOMALY":"269.6649","TLE_LINE1":"1 46059U 20055AJ  22058.87787053 -.00000041  00000-0  16163-4 0  9995","CENTER_NAME":"EARTH","ECCENTRICITY":"0.00013100","REV_AT_EPOCH":"8730","GP_ID":"197283800","SEMIMAJOR_AXIS":"6925.381","ELEMENT_SET_NO":"999"},{"OBJECT_TYPE":"PAYLOAD","PERIAPSIS":"545.971","TLE_LINE2":"2 46060  53.0540 239.0651 0001841  93.3373 266.7827 15.06389562 87326","RA_OF_ASC_NODE":"239.0651","REF_FRAME":"TEME","MEAN_ELEMENT_THEORY":"SGP4","NORAD_CAT_ID":"46060","APOAPSIS":"548.521","MEAN_MOTION_DDOT":"0.0000000000000","BSTAR":"0.00024134000000","EPOCH":"2022-02-27T22:34:21.456768","OBJECT_ID":"2020-055AK","INCLINATION":"53.0540","DECAY_DATE":null,"FILE":"3331200","MEAN_MOTION_DOT":"0.00003314","ARG_OF_PERICENTER":"93.3373","LAUNCH_DATE":"2020-08-07","ELEMENT_SET_NO":"999","REV_AT_EPOCH":"8732","GP_ID":"197284051","SEMIMAJOR_AXIS":"6925.381","MEAN_ANOMALY":"266.7827","TLE_LINE1":"1 46060U 20055AK  22058.94052612  .00003314  00000-0  24134-3 0  9992","ECCENTRICITY":"0.00018410","CENTER_NAME":"EARTH","PERIOD":"95.593","COUNTRY_CODE":"US","CLASSIFICATION_TYPE":"U","TIME_SYSTEM":"UTC","EPHEMERIS_TYPE":"0","OBJECT_NAME":"STARLINK-1572","MEAN_MOTION":"15.06389562","RCS_SIZE":"LARGE","SITE":"AFETR"},{"ELEMENT_SET_NO":"999","SEMIMAJOR_AXIS":"6925.330","GP_ID":"197284802","REV_AT_EPOCH":"8733","MEAN_ANOMALY":"280.2799","ECCENTRICITY":"0.00016840","CENTER_NAME":"EARTH","TLE_LINE1":"1 46061U 20055AL  22058.80046148  .00000283  00000-0  37891-4 0  9992","PERIOD":"95.592","COUNTRY_CODE":"US","CLASSIFICATION_TYPE":"U","TIME_SYSTEM":"UTC","EPHEMERIS_TYPE":"0","RCS_SIZE":"LARGE","OBJECT_NAME":"STARLINK-1573","MEAN_MOTION":"15.06406070","SITE":"AFETR","OBJECT_TYPE":"PAYLOAD","PERIAPSIS":"546.029","TLE_LINE2":"2 46061  53.0556 239.6935 0001684  79.8380 280.2799 15.06406070 87331","RA_OF_ASC_NODE":"239.6935","REF_FRAME":"TEME","MEAN_ELEMENT_THEORY":"SGP4","NORAD_CAT_ID":"46061","APOAPSIS":"548.361","MEAN_MOTION_DDOT":"0.0000000000000","BSTAR":"0.00003789100000","OBJECT_ID":"2020-055AL","EPOCH":"2022-02-27T19:12:39.871872","DECAY_DATE":null,"INCLINATION":"53.0556","FILE":"3331200","ARG_OF_PERICENTER":"79.8380","LAUNCH_DATE":"2020-08-07","MEAN_MOTION_DOT":"0.00000283"},{"FILE":"3331200","INCLINATION":"53.0528","DECAY_DATE":null,"MEAN_MOTION_DOT":"0.00001975","LAUNCH_DATE":"2020-08-07","ARG_OF_PERICENTER":"70.4741","MEAN_MOTION_DDOT":"0.0000000000000","APOAPSIS":"548.140","OBJECT_ID":"2020-055AM","EPOCH":"2022-02-27T18:24:53.375616","BSTAR":"0.00015144000000","REF_FRAME":"TEME","RA_OF_ASC_NODE":"239.8546","TLE_LINE2":"2 46062  53.0528 239.8546 0001365  70.4741 289.6395 15.06406111 87291","NORAD_CAT_ID":"46062","MEAN_ELEMENT_THEORY":"SGP4","PERIAPSIS":"546.250","OBJECT_TYPE":"PAYLOAD","EPHEMERIS_TYPE":"0","SITE":"AFETR","OBJECT_NAME":"STARLINK-1574","MEAN_MOTION":"15.06406111","RCS_SIZE":"LARGE","CLASSIFICATION_TYPE":"U","COUNTRY_CODE":"US","TIME_SYSTEM":"UTC","TLE_LINE1":"1 46062U 20055AM  22058.76728444  .00001975  00000-0  15144-3 0  9999","CENTER_NAME":"EARTH","ECCENTRICITY":"0.00013650","MEAN_ANOMALY":"289.6395","PERIOD":"95.592","ELEMENT_SET_NO":"999","REV_AT_EPOCH":"8729","SEMIMAJOR_AXIS":"6925.330","GP_ID":"197283050"},{"EPHEMERIS_TYPE":"0","SITE":"AFETR","OBJECT_NAME":"STARLINK-1577","MEAN_MOTION":"15.06396141","RCS_SIZE":"LARGE","CLASSIFICATION_TYPE":"U","COUNTRY_CODE":"US","TIME_SYSTEM":"UTC","TLE_LINE1":"1 46063U 20055AN  22058.82995469  .00000398  00000-0  45620-4 0  9991","ECCENTRICITY":"0.00013790","CENTER_NAME":"EARTH","MEAN_ANOMALY":"278.0911","PERIOD":"95.592","ELEMENT_SET_NO":"999","REV_AT_EPOCH":"8733","SEMIMAJOR_AXIS":"6925.360","GP_ID":"197283300","FILE":"3331200","INCLINATION":"53.0544","DECAY_DATE":null,"MEAN_MOTION_DOT":"0.00000398","LAUNCH_DATE":"2020-08-07","ARG_OF_PERICENTER":"82.0234","MEAN_MOTION_DDOT":"0.0000000000000","APOAPSIS":"548.180","OBJECT_ID":"2020-055AN","EPOCH":"2022-02-27T19:55:08.085216","BSTAR":"0.00004562000000","RA_OF_ASC_NODE":"239.5687","REF_FRAME":"TEME","TLE_LINE2":"2 46063  53.0544 239.5687 0001379  82.0234 278.0911 15.06396141 87336","NORAD_CAT_ID":"46063","MEAN_ELEMENT_THEORY":"SGP4","PERIAPSIS":"546.270","OBJECT_TYPE":"PAYLOAD"},{"EPHEMERIS_TYPE":"0","SITE":"AFETR","MEAN_MOTION":"15.06399074","OBJECT_NAME":"STARLINK-1583","RCS_SIZE":"LARGE","CLASSIFICATION_TYPE":"U","COUNTRY_CODE":"US","TIME_SYSTEM":"UTC","TLE_LINE1":"1 46064U 20055AP  22058.86312527 -.00000058  00000-0  15031-4 0  9991","ECCENTRICITY":"0.00017930","CENTER_NAME":"EARTH","MEAN_ANOMALY":"296.4788","PERIOD":"95.592","ELEMENT_SET_NO":"999","REV_AT_EPOCH":"8734","GP_ID":"197284552","SEMIMAJOR_AXIS":"6925.351","FILE":"3331200","INCLINATION":"53.0556","DECAY_DATE":null,"MEAN_MOTION_DOT":"-0.00000058","LAUNCH_DATE":"2020-08-07","ARG_OF_PERICENTER":"63.6385","MEAN_MOTION_DDOT":"0.0000000000000","APOAPSIS":"548.458","OBJECT_ID":"2020-055AP","EPOCH":"2022-02-27T20:42:54.023328","BSTAR":"0.00001503100000","REF_FRAME":"TEME","RA_OF_ASC_NODE":"239.4123","TLE_LINE2":"2 46064  53.0556 239.4123 0001793  63.6385 296.4788 15.06399074 87341","NORAD_CAT_ID":"46064","MEAN_ELEMENT_THEORY":"SGP4","PERIAPSIS":"545.975","OBJECT_TYPE":"PAYLOAD"},{"APOAPSIS":"548.326","MEAN_MOTION_DDOT":"0.0000000000000","BSTAR":"-0.00002243900000","OBJECT_ID":"2020-055AQ","EPOCH":"2022-02-27T20:33:34.201440","DECAY_DATE":null,"INCLINATION":"53.0545","FILE":"3331200","LAUNCH_DATE":"2020-08-07","ARG_OF_PERICENTER":"77.0375","MEAN_MOTION_DOT":"-0.00000616","OBJECT_TYPE":"PAYLOAD","PERIAPSIS":"546.038","TLE_LINE2":"2 46065  53.0545 219.4360 0001652  77.0375 283.0798 15.06410306 87607","REF_FRAME":"TEME","RA_OF_ASC_NODE":"219.4360","MEAN_ELEMENT_THEORY":"SGP4","NORAD_CAT_ID":"46065","COUNTRY_CODE":"US","CLASSIFICATION_TYPE":"U","TIME_SYSTEM":"UTC","EPHEMERIS_TYPE":"0","RCS_SIZE":"LARGE","OBJECT_NAME":"STARLINK-1515","MEAN_MOTION":"15.06410306","SITE":"AFETR","ELEMENT_SET_NO":"999","GP_ID":"197284302","SEMIMAJOR_AXIS":"6925.317","REV_AT_EPOCH":"8760","MEAN_ANOMALY":"283.0798","CENTER_NAME":"EARTH","ECCENTRICITY":"0.00016520","TLE_LINE1":"1 46065U 20055AQ  22058.85664585 -.00000616  00000-0 -22439-4 0  9996","PERIOD":"95.591"},{"ARG_OF_PERICENTER":"71.9770","LAUNCH_DATE":"2020-08-07","MEAN_MOTION_DOT":"0.00004940","DECAY_DATE":null,"INCLINATION":"53.0529","FILE":"3331200","BSTAR":"0.00035019000000","OBJECT_ID":"2020-055AR","EPOCH":"2022-02-27T17:29:09.909024","APOAPSIS":"548.287","MEAN_MOTION_DDOT":"0.0000000000000","MEAN_ELEMENT_THEORY":"SGP4","NORAD_CAT_ID":"46066","TLE_LINE2":"2 46066  53.0529 220.0232 0001596  71.9770 288.1393 15.06410478 87590","REF_FRAME":"TEME","RA_OF_ASC_NODE":"220.0232","OBJECT_TYPE":"PAYLOAD","PERIAPSIS":"546.076","RCS_SIZE":"LARGE","OBJECT_NAME":"STARLINK-1525","MEAN_MOTION":"15.06410478","SITE":"AFETR","EPHEMERIS_TYPE":"0","TIME_SYSTEM":"UTC","COUNTRY_CODE":"US","CLASSIFICATION_TYPE":"U","PERIOD":"95.591","MEAN_ANOMALY":"288.1393","ECCENTRICITY":"0.00015960","CENTER_NAME":"EARTH","TLE_LINE1":"1 46066U 20055AR  22058.72858691  .00004940  00000-0  35019-3 0  9995","GP_ID":"197283551","SEMIMAJOR_AXIS":"6925.316","REV_AT_EPOCH":"8759","ELEMENT_SET_NO":"999"}];
